[{"OBJECT_NAME":"SAUDISAT 5B","OBJECT_ID":"2018-102C","EPOCH":"2026-03-09T22:59:17.457216","MEAN_MOTION":15.27248504,"ECCENTRICITY":0.00120577,"INCLINATION":97.3281,"RA_OF_ASC_NODE":135.3629,"ARG_OF_PERICENTER":124.0958,"MEAN_ANOMALY":236.1427,"EPHEMERIS_TYPE":0,"CLASSIFICATION_TYPE":"U","NORAD_CAT_ID":43833,"ELEMENT_SET_NO":999,"REV_AT_EPOCH":40064,"BSTAR":0.00024926623,"MEAN_MOTION_DOT":6.596e-5,"MEAN_MOTION_DDOT":0},{"OBJECT_NAME":"STARLINK-31957","OBJECT_ID":"2024-106E","EPOCH":"2026-03-09T03:26:56.734080","MEAN_MOTION":15.27570718,"ECCENTRICITY":0.00013933,"INCLINATION":43.0018,"RA_OF_ASC_NODE":335.2378,"ARG_OF_PERICENTER":274.7121,"MEAN_ANOMALY":85.3571,"EPHEMERIS_TYPE":0,"CLASSIFICATION_TYPE":"U","NORAD_CAT_ID":59926,"ELEMENT_SET_NO":999,"REV_AT_EPOCH":10049,"BSTAR":-3.6464619e-5,"MEAN_MOTION_DOT":-1.265e-5,"MEAN_MOTION_DDOT":0}]
